{
    "links": {
        "self": "http://www.neowsapp.com/rest/v1/neo/3721073?api_key=iIulBulltgU6a56xZRHN4H3l9WmuAYTsLGpBGhQ2"
    },
    "id": "3721073",
    "neo_reference_id": "3721073",
    "name": "(2015 LY13)",
    "designation": "2015 LY13",
    "nasa_jpl_url": "http://ssd.jpl.nasa.gov/sbdb.cgi?sstr=3721073",
    "absolute_magnitude_h": 24.1,
    "estimated_diameter": {
        "kilometers": {
            "estimated_diameter_min": 0.040230458,
            "estimated_diameter_max": 0.0899580388
        },
        "meters": {
            "estimated_diameter_min": 40.2304579834,
            "estimated_diameter_max": 89.9580388169
        },
        "miles": {
            "estimated_diameter_min": 0.0249980399,
            "estimated_diameter_max": 0.0558973165
        },
        "feet": {
            "estimated_diameter_min": 131.9896957704,
            "estimated_diameter_max": 295.1379320721
        }
    },
    "is_potentially_hazardous_asteroid": false,
    "close_approach_data": [
        {
            "close_approach_date": "2008-06-06",
            "close_approach_date_full": "2008-Jun-06 05:46",
            "epoch_date_close_approach": 1212731160000,
            "relative_velocity": {
                "kilometers_per_second": "14.5509307906",
                "kilometers_per_hour": "52383.3508460005",
                "miles_per_hour": "32548.977085394"
            },
            "miss_distance": {
                "astronomical": "0.0307296535",
                "lunar": "11.9538352115",
                "kilometers": "4597090.709438045",
                "miles": "2856499.709193221"
            },
            "orbiting_body": "Earth"
        },
        {
            "close_approach_date": "2014-12-10",
            "close_approach_date_full": "2014-Dec-10 07:54",
            "epoch_date_close_approach": 1418198040000,
            "relative_velocity": {
                "kilometers_per_second": "13.9566754563",
                "kilometers_per_hour": "50244.0316425223",
                "miles_per_hour": "31219.6873280995"
            },
            "miss_distance": {
                "astronomical": "0.2078586123",
                "lunar": "80.8570001847",
                "kilometers": "31095205.661235801",
                "miles": "19321664.8403880138"
            },
            "orbiting_body": "Earth"
        },
        {
            "close_approach_date": "2015-06-07",
            "close_approach_date_full": "2015-Jun-07 16:16",
            "epoch_date_close_approach": 1433693760000,
            "relative_velocity": {
                "kilometers_per_second": "14.7388068569",
                "kilometers_per_hour": "53059.7046848468",
                "miles_per_hour": "32969.2370582039"
            },
            "miss_distance": {
                "astronomical": "0.0361396305",
                "lunar": "14.0583162645",
                "kilometers": "5406411.745387035",
                "miles": "3359388.481669683"
            },
            "orbiting_body": "Earth"
        },
        {
            "close_approach_date": "2021-12-08",
            "close_approach_date_full": "2021-Dec-08 12:27",
            "epoch_date_close_approach": 1638966420000,
            "relative_velocity": {
                "kilometers_per_second": "13.9749399282",
                "kilometers_per_hour": "50309.7837414221",
                "miles_per_hour": "31260.5431253297"
            },
            "miss_distance": {
                "astronomical": "0.2457411545",
                "lunar": "95.5933091005",
                "kilometers": "36762353.284540915",
                "miles": "22843067.083918027"
            },
            "orbiting_body": "Earth"
        },
        {
            "close_approach_date": "2022-06-09",
            "close_approach_date_full": "2022-Jun-09 02:23",
            "epoch_date_close_approach": 1654741380000,
            "relative_velocity": {
                "kilometers_per_second": "15.3166422043",
                "kilometers_per_hour": "55139.9119354415",
                "miles_per_hour": "34261.7969467747"
            },
            "miss_distance": {
                "astronomical": "0.0805080536",
                "lunar": "31.3176328504",
                "kilometers": "12043833.336405832",
                "miles": "7483691.0118792016"
            },
            "orbiting_body": "Earth"
        }
    ],
    "orbital_data": {
        "orbit_id": "5",
        "orbit_determination_date": "2017-04-06 08:33:12",
        "first_observation_date": "2015-06-08",
        "last_observation_date": "2015-06-17",
        "data_arc_in_days": 9,
        "observations_used": 58,
        "orbit_uncertainty": "8",
        "minimum_orbit_intersection": ".0306324",
        "jupiter_tisserand_invariant": "5.501",
        "epoch_osculation": "2457184.5",
        "eccentricity": ".1520261443831888",
        "semi_major_axis": "1.109185417290288",
        "inclination": "27.47628955206122",
        "ascending_node_longitude": "256.7824174562019",
        "orbital_period": "426.6823257175997",
        "perihelion_distance": ".940560234893587",
        "perihelion_argument": "283.3218856564121",
        "aphelion_distance": "1.277810599686988",
        "perihelion_time": "2457111.519696381673",
        "mean_anomaly": "61.57487132472996",
        "mean_motion": ".8437190347515507",
        "equinox": "J2000",
        "orbit_class": {
            "orbit_class_type": "APO",
            "orbit_class_description": "Near-Earth asteroid orbits which cross the Earth’s orbit similar to that of 1862 Apollo",
            "orbit_class_range": "a (semi-major axis) > 1.0 AU; q (perihelion) < 1.017 AU"
        }
    },
    "is_sentry_object": false
}